{
  "type": "FeatureCollection",
  "features": [
    {
      "type": "Feature",
      "properties": {
        "norad_id": 31307,
        "name": "GALAXY 17 (G-17)",
        "group": "intelsat",
        "lat": -1.135477259164322,
        "lon": -71.64887977823014,
        "alt_km": 35767.48736454869,
        "timestamp": "2025-12-19T18:58:41.259610+00:00",
        "meta_object_name": "GALAXY 17 (G-17)",
        "meta_object_id": "2007-016B",
        "meta_epoch": "2025-12-19T06:12:39.425760",
        "meta_mean_motion": 1.00272358,
        "meta_eccentricity": 0.00054453,
        "meta_inclination": 2.5157,
        "meta_ra_of_asc_node": 82.2133,
        "meta_arg_of_pericenter": 169.8109,
        "meta_mean_anomaly": 204.2848,
        "meta_ephemeris_type": 0,
        "meta_classification_type": "U",
        "meta_norad_cat_id": 31307,
        "meta_element_set_no": 999,
        "meta_rev_at_epoch": 6800,
        "meta_bstar": 0,
        "meta_mean_motion_dot": -1.84e-06,
        "meta_mean_motion_ddot": 0,
        "tle_line1": "1 31307U 07016B   25353.25878965 -.00000184  00000+0  00000+0 0  9998",
        "tle_line2": "2 31307   2.5157  82.2133 0005445 169.8109 204.2848  1.00272358 68007"
      },
      "geometry": {
        "type": "Point",
        "coordinates": [
          -71.64887977823014,
          -1.135477259164322
        ]
      }
    },
    {
      "type": "Feature",
      "properties": {
        "norad_id": 31862,
        "name": "DIRECTV 10",
        "group": "intelsat",
        "lat": -0.02146954948608397,
        "lon": -89.51086869121715,
        "alt_km": 35786.15469569395,
        "timestamp": "2025-12-19T18:58:41.259652+00:00",
        "meta_object_name": "DIRECTV 10",
        "meta_object_id": "2007-032A",
        "meta_epoch": "2025-12-18T23:04:43.398624",
        "meta_mean_motion": 1.00270613,
        "meta_eccentricity": 2.114e-05,
        "meta_inclination": 0.0079,
        "meta_ra_of_asc_node": 54.2864,
        "meta_arg_of_pericenter": 143.5711,
        "meta_mean_anomaly": 133.3348,
        "meta_ephemeris_type": 0,
        "meta_classification_type": "U",
        "meta_norad_cat_id": 31862,
        "meta_element_set_no": 999,
        "meta_rev_at_epoch": 4378,
        "meta_bstar": 0,
        "meta_mean_motion_dot": -7.8e-07,
        "meta_mean_motion_ddot": 0,
        "tle_line1": "1 31862U 07032A   25352.96161341 -.00000078  00000+0  00000+0 0  9994",
        "tle_line2": "2 31862   0.0079  54.2864 0000211 143.5711 133.3348  1.00270613 43780"
      },
      "geometry": {
        "type": "Point",
        "coordinates": [
          -89.51086869121715,
          -0.02146954948608397
        ]
      }
    },
    {
      "type": "Feature",
      "properties": {
        "norad_id": 32253,
        "name": "INTELSAT 11 (IS-11)",
        "group": "intelsat",
        "lat": 2.45985605034991,
        "lon": -152.05576480105665,
        "alt_km": 36103.922437722045,
        "timestamp": "2025-12-19T18:58:41.259666+00:00",
        "meta_object_name": "INTELSAT 11 (IS-11)",
        "meta_object_id": "2007-044B",
        "meta_epoch": "2025-12-19T05:38:33.071136",
        "meta_mean_motion": 0.99051799,
        "meta_eccentricity": 0.00085519,
        "meta_inclination": 3.0962,
        "meta_ra_of_asc_node": 80.9054,
        "meta_arg_of_pericenter": 168.4719,
        "meta_mean_anomaly": 120.4553,
        "meta_ephemeris_type": 0,
        "meta_classification_type": "U",
        "meta_norad_cat_id": 32253,
        "meta_element_set_no": 999,
        "meta_rev_at_epoch": 6666,
        "meta_bstar": 0,
        "meta_mean_motion_dot": -2.6e-07,
        "meta_mean_motion_ddot": 0,
        "tle_line1": "1 32253U 07044B   25353.23510499 -.00000026  00000+0  00000+0 0  9998",
        "tle_line2": "2 32253   3.0962  80.9054 0008551 168.4719 120.4553  0.99051799 66661"
      },
      "geometry": {
        "type": "Point",
        "coordinates": [
          -152.05576480105665,
          2.45985605034991
        ]
      }
    },
    {
      "type": "Feature",
      "properties": {
        "norad_id": 32388,
        "name": "HORIZONS-2",
        "group": "intelsat",
        "lat": -1.2999597366010356,
        "lon": -60.48134465603874,
        "alt_km": 35768.46643725456,
        "timestamp": "2025-12-19T18:58:41.259678+00:00",
        "meta_object_name": "HORIZONS-2",
        "meta_object_id": "2007-063B",
        "meta_epoch": "2025-12-19T06:15:31.308192",
        "meta_mean_motion": 1.002722,
        "meta_eccentricity": 0.00045723,
        "meta_inclination": 2.1377,
        "meta_ra_of_asc_node": 82.8922,
        "meta_arg_of_pericenter": 192.8793,
        "meta_mean_anomaly": 192.437,
        "meta_ephemeris_type": 0,
        "meta_classification_type": "U",
        "meta_norad_cat_id": 32388,
        "meta_element_set_no": 999,
        "meta_rev_at_epoch": 6601,
        "meta_bstar": 0,
        "meta_mean_motion_dot": -2.31e-06,
        "meta_mean_motion_ddot": 0,
        "tle_line1": "1 32388U 07063B   25353.26077903 -.00000231  00000+0  00000+0 0  9997",
        "tle_line2": "2 32388   2.1377  82.8922 0004572 192.8793 192.4370  1.00272200 66017"
      },
      "geometry": {
        "type": "Point",
        "coordinates": [
          -60.48134465603874,
          -1.2999597366010356
        ]
      }
    },
    {
      "type": "Feature",
      "properties": {
        "norad_id": 32729,
        "name": "DIRECTV 11",
        "group": "intelsat",
        "lat": -0.0076140387094744836,
        "lon": -85.8794866232939,
        "alt_km": 35786.527123136046,
        "timestamp": "2025-12-19T18:58:41.259691+00:00",
        "meta_object_name": "DIRECTV 11",
        "meta_object_id": "2008-013A",
        "meta_epoch": "2025-12-18T14:32:04.553664",
        "meta_mean_motion": 1.00272086,
        "meta_eccentricity": 5.406e-05,
        "meta_inclination": 0.0315,
        "meta_ra_of_asc_node": 212.3595,
        "meta_arg_of_pericenter": 318.9842,
        "meta_mean_anomaly": 34.9588,
        "meta_ephemeris_type": 0,
        "meta_classification_type": "U",
        "meta_norad_cat_id": 32729,
        "meta_element_set_no": 999,
        "meta_rev_at_epoch": 4378,
        "meta_bstar": 0,
        "meta_mean_motion_dot": -1.01e-06,
        "meta_mean_motion_ddot": 0,
        "tle_line1": "1 32729U 08013A   25352.60560826 -.00000101  00000+0  00000+0 0  9996",
        "tle_line2": "2 32729   0.0315 212.3595 0000540 318.9842  34.9588  1.00272086 43780"
      },
      "geometry": {
        "type": "Point",
        "coordinates": [
          -85.8794866232939,
          -0.0076140387094744836
        ]
      }
    },
    {
      "type": "Feature",
      "properties": {
        "norad_id": 32951,
        "name": "GALAXY 18 (G-18)",
        "group": "intelsat",
        "lat": -0.03165924644937165,
        "lon": -109.72460048905309,
        "alt_km": 35775.25513371277,
        "timestamp": "2025-12-19T18:58:41.259708+00:00",
        "meta_object_name": "GALAXY 18 (G-18)",
        "meta_object_id": "2008-024A",
        "meta_epoch": "2025-12-19T05:47:44.988288",
        "meta_mean_motion": 1.00270818,
        "meta_eccentricity": 0.00028156,
        "meta_inclination": 0.0162,
        "meta_ra_of_asc_node": 31.3027,
        "meta_arg_of_pericenter": 240.9441,
        "meta_mean_anomaly": 139.777,
        "meta_ephemeris_type": 0,
        "meta_classification_type": "U",
        "meta_norad_cat_id": 32951,
        "meta_element_set_no": 999,
        "meta_rev_at_epoch": 4404,
        "meta_bstar": 0,
        "meta_mean_motion_dot": 5e-07,
        "meta_mean_motion_ddot": 0,
        "tle_line1": "1 32951U 08024A   25353.24149292  .00000050  00000+0  00000+0 0  9998",
        "tle_line2": "2 32951   0.0162  31.3027 0002815 240.9441 139.7770  1.00270818 44040"
      },
      "geometry": {
        "type": "Point",
        "coordinates": [
          -109.72460048905309,
          -0.03165924644937165
        ]
      }
    },
    {
      "type": "Feature",
      "properties": {
        "norad_id": 33153,
        "name": "INTELSAT 25 (IS-25)",
        "group": "intelsat",
        "lat": -2.212911668704202,
        "lon": -18.163251121826374,
        "alt_km": 35780.798162208186,
        "timestamp": "2025-12-19T18:58:41.259719+00:00",
        "meta_object_name": "INTELSAT 25 (IS-25)",
        "meta_object_id": "2008-034A",
        "meta_epoch": "2025-12-19T06:15:59.484960",
        "meta_mean_motion": 1.00270447,
        "meta_eccentricity": 0.00047953,
        "meta_inclination": 2.2436,
        "meta_ra_of_asc_node": 82.5806,
        "meta_arg_of_pericenter": 186.3988,
        "meta_mean_anomaly": 241.6253,
        "meta_ephemeris_type": 0,
        "meta_classification_type": "U",
        "meta_norad_cat_id": 33153,
        "meta_element_set_no": 999,
        "meta_rev_at_epoch": 6389,
        "meta_bstar": 0,
        "meta_mean_motion_dot": -2.01e-06,
        "meta_mean_motion_ddot": 0,
        "tle_line1": "1 33153U 08034A   25353.26110515 -.00000201  00000+0  00000+0 0  9991",
        "tle_line2": "2 33153   2.2436  82.5806 0004795 186.3988 241.6253  1.00270447 63895"
      },
      "geometry": {
        "type": "Point",
        "coordinates": [
          -18.163251121826374,
          -2.212911668704202
        ]
      }
    }
  ]
}